ONEWEB-0056             
1 45159U 20008AE  25193.50182141  .00002424  00000+0  69071-2 0  9992
2 45159  87.8823 104.0091 0001980  76.5356 283.5992 13.10369460263694
ONEWEB-0057             
1 45160U 20008AF  25193.50931404  .00000688  00000+0  19338-2 0  9999
2 45160  87.8824 104.0214 0001794  80.2384 279.8946 13.10372041263865
ONEWEB-0058             
1 45161U 20008AG  25193.49616584  .00000327  00000+0  90169-3 0  9999
2 45161  87.8822 104.0356 0002060  77.8307 282.3051 13.10375423263936
ONEWEB-0059             
1 45162U 20008AH  25193.49270617  .00000170  00000+0  45088-3 0  9999
2 45162  87.8826 104.0344 0002054  76.6425 283.4932 13.10375739263838
ONEWEB-0062             
1 45163U 20008AJ  25193.51844061  .00000481  00000+0  13403-2 0  9993
2 45163  87.8816 104.0094 0002158  68.9586 291.1771 13.10370636263701
ONEWEB-0065             
1 45164U 20008AK  25193.72675995  .00000307  00000+0  84438-3 0  9999
2 45164  87.8826 103.9912 0001580  76.6485 283.4818 13.10375331264166
ONEWEB-0066             
1 45424U 20020A   25193.47347490  .00000471  00000+0  12924-2 0  9992
2 45424  87.8828  88.7744 0002024  87.5113 272.6246 13.11415080258168
ONEWEB-0067             
1 45425U 20020B   25193.43459984 -.00000627  00000+0 -18054-2 0  9996
2 45425  87.8818  88.6952 0001838  84.3010 275.8327 13.11416705258206
